start=new Date('2022-10-13T00:00:00.000Z').valueOf();
sats=[{"MEAN_MOTION_DOT":"0.00000716","PERIOD":"95.920","CENTER_NAME":"EARTH","COUNTRY_CODE":"US","FILE":"3606891","DECAY_DATE":null,"APOAPSIS":"564.383","TLE_LINE2":"2 53218  97.6543 345.3414 0001919 146.7790 213.3555 15.01247167 13207","BSTAR":"0.00006038400000","CLASSIFICATION_TYPE":"U","ELEMENT_SET_NO":"999","REV_AT_EPOCH":"1320","INCLINATION":"97.6543","SITE":"AFWTR","TIME_SYSTEM":"UTC","ECCENTRICITY":"0.00019190","OBJECT_NAME":"STARLINK-4384","ARG_OF_PERICENTER":"146.7790","RA_OF_ASC_NODE":"345.3414","EPHEMERIS_TYPE":"0","NORAD_CAT_ID":"53218","PERIAPSIS":"561.719","SEMIMAJOR_AXIS":"6941.186","LAUNCH_DATE":"2022-07-22","MEAN_MOTION":"15.01247167","EPOCH":"2022-10-12T17:51:36.383904","REF_FRAME":"TEME","GP_ID":"214924392","OBJECT_TYPE":"PAYLOAD","RCS_SIZE":"LARGE","OBJECT_ID":"2022-084AF","TLE_LINE1":"1 53218U 22084AF  22285.74417111  .00000716  00000-0  60384-4 0  9999","MEAN_MOTION_DDOT":"0.0000000000000","MEAN_ELEMENT_THEORY":"SGP4","MEAN_ANOMALY":"213.3555"},{"DECAY_DATE":null,"APOAPSIS":"564.623","COUNTRY_CODE":"US","FILE":"3606891","CENTER_NAME":"EARTH","MEAN_MOTION_DOT":"0.00000411","PERIOD":"95.920","SITE":"AFWTR","TIME_SYSTEM":"UTC","ECCENTRICITY":"0.00022630","REV_AT_EPOCH":"1266","INCLINATION":"97.6560","CLASSIFICATION_TYPE":"U","ELEMENT_SET_NO":"999","TLE_LINE2":"2 53219  97.6560 345.2015 0002263 114.8147 245.3313 15.01246745 12665","BSTAR":"0.00003656900000","MEAN_MOTION":"15.01246745","SEMIMAJOR_AXIS":"6941.188","PERIAPSIS":"561.482","LAUNCH_DATE":"2022-07-22","RA_OF_ASC_NODE":"345.2015","NORAD_CAT_ID":"53219","EPHEMERIS_TYPE":"0","ARG_OF_PERICENTER":"114.8147","OBJECT_NAME":"STARLINK-4373","MEAN_ELEMENT_THEORY":"SGP4","MEAN_ANOMALY":"245.3313","OBJECT_ID":"2022-084AG","TLE_LINE1":"1 53219U 22084AG  22285.59975845  .00000411  00000-0  36569-4 0  9996","RCS_SIZE":"LARGE","MEAN_MOTION_DDOT":"0.0000000000000","OBJECT_TYPE":"PAYLOAD","GP_ID":"214925383","EPOCH":"2022-10-12T14:23:39.130080","REF_FRAME":"TEME"},{"SITE":"AFWTR","TIME_SYSTEM":"UTC","ECCENTRICITY":"0.00019670","REV_AT_EPOCH":"1315","INCLINATION":"97.6538","CLASSIFICATION_TYPE":"U","ELEMENT_SET_NO":"999","BSTAR":"-0.00005300500000","TLE_LINE2":"2 53220  97.6538 345.0063 0001967 132.3581 227.7810 15.01255650 13156","DECAY_DATE":null,"APOAPSIS":"564.391","COUNTRY_CODE":"US","FILE":"3606148","CENTER_NAME":"EARTH","MEAN_MOTION_DOT":"-0.00000740","PERIOD":"95.920","MEAN_ELEMENT_THEORY":"SGP4","MEAN_ANOMALY":"227.7810","OBJECT_ID":"2022-084AH","TLE_LINE1":"1 53220U 22084AH  22285.40534540 -.00000740  00000-0 -53005-4 0  9992","RCS_SIZE":"LARGE","MEAN_MOTION_DDOT":"0.0000000000000","OBJECT_TYPE":"PAYLOAD","GP_ID":"214884511","EPOCH":"2022-10-12T09:43:41.842560","REF_FRAME":"TEME","MEAN_MOTION":"15.01255650","SEMIMAJOR_AXIS":"6941.160","PERIAPSIS":"561.660","LAUNCH_DATE":"2022-07-22","RA_OF_ASC_NODE":"345.0063","NORAD_CAT_ID":"53220","EPHEMERIS_TYPE":"0","ARG_OF_PERICENTER":"132.3581","OBJECT_NAME":"STARLINK-4363"},{"EPOCH":"2022-10-12T19:08:54.188160","REF_FRAME":"TEME","OBJECT_TYPE":"PAYLOAD","GP_ID":"214924979","OBJECT_ID":"2022-084AJ","TLE_LINE1":"1 53221U 22084AJ  22285.79784940  .00004356  00000-0  34359-3 0  9991","RCS_SIZE":"LARGE","MEAN_MOTION_DDOT":"0.0000000000000","MEAN_ELEMENT_THEORY":"SGP4","MEAN_ANOMALY":"272.9305","ARG_OF_PERICENTER":"87.2098","OBJECT_NAME":"STARLINK-4377","RA_OF_ASC_NODE":"345.3980","NORAD_CAT_ID":"53221","EPHEMERIS_TYPE":"0","SEMIMAJOR_AXIS":"6941.166","PERIAPSIS":"561.945","LAUNCH_DATE":"2022-07-22","MEAN_MOTION":"15.01253875","BSTAR":"0.00034359000000","TLE_LINE2":"2 53221  97.6543 345.3980 0001564  87.2098 272.9305 15.01253875 12694","CLASSIFICATION_TYPE":"U","ELEMENT_SET_NO":"999","REV_AT_EPOCH":"1269","INCLINATION":"97.6543","SITE":"AFWTR","TIME_SYSTEM":"UTC","ECCENTRICITY":"0.00015640","MEAN_MOTION_DOT":"0.00004356","PERIOD":"95.920","CENTER_NAME":"EARTH","COUNTRY_CODE":"US","FILE":"3606891","DECAY_DATE":null,"APOAPSIS":"564.116"},{"TIME_SYSTEM":"UTC","ECCENTRICITY":"0.00018110","SITE":"AFWTR","INCLINATION":"97.6550","REV_AT_EPOCH":"1269","ELEMENT_SET_NO":"999","CLASSIFICATION_TYPE":"U","TLE_LINE2":"2 53222  97.6550 345.3999 0001811 120.9432 239.1971 15.01257660 12695","BSTAR":"0.00008897000000","APOAPSIS":"564.276","DECAY_DATE":null,"FILE":"3606891","COUNTRY_CODE":"US","CENTER_NAME":"EARTH","PERIOD":"95.920","MEAN_MOTION_DOT":"0.00001084","MEAN_ANOMALY":"239.1971","MEAN_ELEMENT_THEORY":"SGP4","MEAN_MOTION_DDOT":"0.0000000000000","TLE_LINE1":"1 53222U 22084AK  22285.80340456  .00001084  00000-0  88970-4 0  9998","OBJECT_ID":"2022-084AK","RCS_SIZE":"LARGE","OBJECT_TYPE":"PAYLOAD","GP_ID":"214924811","REF_FRAME":"TEME","EPOCH":"2022-10-12T19:16:54.153984","MEAN_MOTION":"15.01257660","LAUNCH_DATE":"2022-07-22","SEMIMAJOR_AXIS":"6941.154","PERIAPSIS":"561.762","NORAD_CAT_ID":"53222","EPHEMERIS_TYPE":"0","RA_OF_ASC_NODE":"345.3999","ARG_OF_PERICENTER":"120.9432","OBJECT_NAME":"STARLINK-4381"},{"SEMIMAJOR_AXIS":"6941.210","PERIAPSIS":"561.909","LAUNCH_DATE":"2022-07-22","MEAN_MOTION":"15.01239572","ARG_OF_PERICENTER":"80.1903","OBJECT_NAME":"STARLINK-4354","RA_OF_ASC_NODE":"344.7386","NORAD_CAT_ID":"53223","EPHEMERIS_TYPE":"0","OBJECT_ID":"2022-084AL","TLE_LINE1":"1 53223U 22084AL  22285.12948942 -.00001804  00000-0 -13598-3 0  9993","RCS_SIZE":"LARGE","MEAN_MOTION_DDOT":"0.0000000000000","MEAN_ELEMENT_THEORY":"SGP4","MEAN_ANOMALY":"279.9511","EPOCH":"2022-10-12T03:06:27.885888","REF_FRAME":"TEME","OBJECT_TYPE":"PAYLOAD","GP_ID":"214884412","COUNTRY_CODE":"US","FILE":"3606148","DECAY_DATE":null,"APOAPSIS":"564.241","MEAN_MOTION_DOT":"-0.00001804","PERIOD":"95.921","CENTER_NAME":"EARTH","REV_AT_EPOCH":"1259","INCLINATION":"97.6548","SITE":"AFWTR","ECCENTRICITY":"0.00016800","TIME_SYSTEM":"UTC","TLE_LINE2":"2 53223  97.6548 344.7386 0001680  80.1903 279.9511 15.01239572 12593","BSTAR":"-0.00013598000000","CLASSIFICATION_TYPE":"U","ELEMENT_SET_NO":"999"},{"PERIAPSIS":"561.636","SEMIMAJOR_AXIS":"6941.192","LAUNCH_DATE":"2022-07-22","MEAN_MOTION":"15.01245375","OBJECT_NAME":"STARLINK-4356","ARG_OF_PERICENTER":"120.4315","RA_OF_ASC_NODE":"344.7420","EPHEMERIS_TYPE":"0","NORAD_CAT_ID":"53224","RCS_SIZE":"LARGE","TLE_LINE1":"1 53224U 22084AM  22285.13504233 -.00003539  00000-0 -27120-3 0  9999","OBJECT_ID":"2022-084AM","MEAN_MOTION_DDOT":"0.0000000000000","MEAN_ELEMENT_THEORY":"SGP4","MEAN_ANOMALY":"239.7111","EPOCH":"2022-10-12T03:14:27.657312","REF_FRAME":"TEME","GP_ID":"214884093","OBJECT_TYPE":"PAYLOAD","COUNTRY_CODE":"US","FILE":"3606148","DECAY_DATE":null,"APOAPSIS":"564.478","MEAN_MOTION_DOT":"-0.00003539","PERIOD":"95.920","CENTER_NAME":"EARTH","REV_AT_EPOCH":"1259","INCLINATION":"97.6553","SITE":"AFWTR","ECCENTRICITY":"0.00020470","TIME_SYSTEM":"UTC","TLE_LINE2":"2 53224  97.6553 344.7420 0002047 120.4315 239.7111 15.01245375 12590","BSTAR":"-0.00027120000000","CLASSIFICATION_TYPE":"U","ELEMENT_SET_NO":"999"},{"MEAN_ANOMALY":"279.8338","MEAN_ELEMENT_THEORY":"SGP4","MEAN_MOTION_DDOT":"0.0000000000000","OBJECT_ID":"2022-084AN","TLE_LINE1":"1 53225U 22084AN  22285.79229952  .00003342  00000-0  26463-3 0  9993","RCS_SIZE":"LARGE","OBJECT_TYPE":"PAYLOAD","GP_ID":"214925232","REF_FRAME":"TEME","EPOCH":"2022-10-12T19:00:54.678528","MEAN_MOTION":"15.01259669","LAUNCH_DATE":"2022-07-22","SEMIMAJOR_AXIS":"6941.148","PERIAPSIS":"561.863","NORAD_CAT_ID":"53225","EPHEMERIS_TYPE":"0","RA_OF_ASC_NODE":"345.3947","ARG_OF_PERICENTER":"80.3073","OBJECT_NAME":"STARLINK-4358","ECCENTRICITY":"0.00016560","TIME_SYSTEM":"UTC","SITE":"AFWTR","INCLINATION":"97.6545","REV_AT_EPOCH":"1269","ELEMENT_SET_NO":"999","CLASSIFICATION_TYPE":"U","BSTAR":"0.00026463000000","TLE_LINE2":"2 53225  97.6545 345.3947 0001656  80.3073 279.8338 15.01259669 12691","APOAPSIS":"564.162","DECAY_DATE":null,"FILE":"3606891","COUNTRY_CODE":"US","CENTER_NAME":"EARTH","PERIOD":"95.919","MEAN_MOTION_DOT":"0.00003342"},{"APOAPSIS":"564.746","DECAY_DATE":null,"FILE":"3606891","COUNTRY_CODE":"US","CENTER_NAME":"EARTH","PERIOD":"95.919","MEAN_MOTION_DOT":"0.00002697","ECCENTRICITY":"0.00025030","TIME_SYSTEM":"UTC","SITE":"AFWTR","INCLINATION":"97.6562","REV_AT_EPOCH":"1269","ELEMENT_SET_NO":"999","CLASSIFICATION_TYPE":"U","BSTAR":"0.00021446000000","TLE_LINE2":"2 53226  97.6562 345.3992 0002503 107.9396 252.2101 15.01260901 12691","MEAN_MOTION":"15.01260901","LAUNCH_DATE":"2022-07-22","SEMIMAJOR_AXIS":"6941.144","PERIAPSIS":"561.272","NORAD_CAT_ID":"53226","EPHEMERIS_TYPE":"0","RA_OF_ASC_NODE":"345.3992","ARG_OF_PERICENTER":"107.9396","OBJECT_NAME":"STARLINK-4359","MEAN_ANOMALY":"252.2101","MEAN_ELEMENT_THEORY":"SGP4","MEAN_MOTION_DDOT":"0.0000000000000","OBJECT_ID":"2022-084AP","TLE_LINE1":"1 53226U 22084AP  22285.79623625  .00002697  00000-0  21446-3 0  9997","RCS_SIZE":"LARGE","OBJECT_TYPE":"PAYLOAD","GP_ID":"214924393","REF_FRAME":"TEME","EPOCH":"2022-10-12T19:06:34.812000"},{"EPOCH":"2022-10-12T15:43:58.654272","REF_FRAME":"TEME","GP_ID":"214925384","OBJECT_TYPE":"PAYLOAD","RCS_SIZE":"LARGE","OBJECT_ID":"2022-084AQ","TLE_LINE1":"1 53227U 22084AQ  22285.65553998  .00016059  00000-0  12518-2 0  9994","MEAN_MOTION_DDOT":"0.0000000000000","MEAN_ELEMENT_THEORY":"SGP4","MEAN_ANOMALY":"268.2767","OBJECT_NAME":"STARLINK-4366","ARG_OF_PERICENTER":"91.8712","RA_OF_ASC_NODE":"345.2699","EPHEMERIS_TYPE":"0","NORAD_CAT_ID":"53227","PERIAPSIS":"561.450","SEMIMAJOR_AXIS":"6941.126","LAUNCH_DATE":"2022-07-22","MEAN_MOTION":"15.01266682","TLE_LINE2":"2 53227  97.6574 345.2699 0002220  91.8712 268.2767 15.01266682 12672","BSTAR":"0.00125180000000","CLASSIFICATION_TYPE":"U","ELEMENT_SET_NO":"999","REV_AT_EPOCH":"1267","INCLINATION":"97.6574","SITE":"AFWTR","TIME_SYSTEM":"UTC","ECCENTRICITY":"0.00022200","MEAN_MOTION_DOT":"0.00016059","PERIOD":"95.919","CENTER_NAME":"EARTH","COUNTRY_CODE":"US","FILE":"3606891","DECAY_DATE":null,"APOAPSIS":"564.532"}];
